{
  "type": "FeatureCollection",
  "features": [
    {
      "type": "Feature",
      "properties": {
        "norad_id": 34540,
        "name": "IRIDIUM 33 DEB",
        "group": "iridium-33-debris",
        "lat": -36.9362406695406,
        "lon": -59.59622277265942,
        "alt_km": 662.0352494142926,
        "timestamp": "2025-12-22T09:53:37.785646+00:00",
        "meta_object_name": "IRIDIUM 33 DEB",
        "meta_object_id": "1997-051JH",
        "meta_epoch": "2025-12-21T19:30:48.758112",
        "meta_mean_motion": 14.75487187,
        "meta_eccentricity": 0.0017806,
        "meta_inclination": 86.3115,
        "meta_ra_of_asc_node": 303.4575,
        "meta_arg_of_pericenter": 128.6543,
        "meta_mean_anomaly": 253.8683,
        "meta_ephemeris_type": 0,
        "meta_classification_type": "U",
        "meta_norad_cat_id": 34540,
        "meta_element_set_no": 999,
        "meta_rev_at_epoch": 89155,
        "meta_bstar": 0.0012465,
        "meta_mean_motion_dot": 8.527e-05,
        "meta_mean_motion_ddot": 0,
        "tle_line1": "1 34540U 97051JH  25355.81306433  .00008527  00000+0  12465-2 0  9997",
        "tle_line2": "2 34540  86.3115 303.4575 0017806 128.6543 253.8683 14.75487187891555"
      },
      "geometry": {
        "type": "Point",
        "coordinates": [
          -59.59622277265942,
          -36.9362406695406
        ]
      }
    },
    {
      "type": "Feature",
      "properties": {
        "norad_id": 34648,
        "name": "IRIDIUM 33 DEB",
        "group": "iridium-33-debris",
        "lat": 53.293872213123066,
        "lon": -77.10345954400488,
        "alt_km": 954.1357125591121,
        "timestamp": "2025-12-22T09:53:37.785656+00:00",
        "meta_object_name": "IRIDIUM 33 DEB",
        "meta_object_id": "1997-051JZ",
        "meta_epoch": "2025-12-21T18:19:39.887040",
        "meta_mean_motion": 14.11736102,
        "meta_eccentricity": 0.0179823,
        "meta_inclination": 86.3908,
        "meta_ra_of_asc_node": 278.3021,
        "meta_arg_of_pericenter": 270.6006,
        "meta_mean_anomaly": 87.4576,
        "meta_ephemeris_type": 0,
        "meta_classification_type": "U",
        "meta_norad_cat_id": 34648,
        "meta_element_set_no": 999,
        "meta_rev_at_epoch": 85088,
        "meta_bstar": 0.0054658,
        "meta_mean_motion_dot": 0.00011615,
        "meta_mean_motion_ddot": 0,
        "tle_line1": "1 34648U 97051JZ  25355.76365610  .00011615  00000+0  54658-2 0  9994",
        "tle_line2": "2 34648  86.3908 278.3021 0179823 270.6006  87.4576 14.11736102850887"
      },
      "geometry": {
        "type": "Point",
        "coordinates": [
          -77.10345954400488,
          53.293872213123066
        ]
      }
    },
    {
      "type": "Feature",
      "properties": {
        "norad_id": 34651,
        "name": "IRIDIUM 33 DEB",
        "group": "iridium-33-debris",
        "lat": -67.00606380861956,
        "lon": -34.725046201370986,
        "alt_km": 783.1204092600174,
        "timestamp": "2025-12-22T09:53:37.785666+00:00",
        "meta_object_name": "IRIDIUM 33 DEB",
        "meta_object_id": "1997-051KC",
        "meta_epoch": "2025-12-19T16:44:48.420096",
        "meta_mean_motion": 14.25922062,
        "meta_eccentricity": 0.01422464,
        "meta_inclination": 86.2827,
        "meta_ra_of_asc_node": 137.6175,
        "meta_arg_of_pericenter": 181.9677,
        "meta_mean_anomaly": 178.0974,
        "meta_ephemeris_type": 0,
        "meta_classification_type": "U",
        "meta_norad_cat_id": 34651,
        "meta_element_set_no": 999,
        "meta_rev_at_epoch": 85995,
        "meta_bstar": 0.0022061693,
        "meta_mean_motion_dot": 5.865e-05,
        "meta_mean_motion_ddot": 0,
        "tle_line1": "1 34651U 97051KC  25353.69778264  .00005865  00000+0  22062-2 0  9995",
        "tle_line2": "2 34651  86.2827 137.6175 0142246 181.9677 178.0974 14.25922062859957"
      },
      "geometry": {
        "type": "Point",
        "coordinates": [
          -34.725046201370986,
          -67.00606380861956
        ]
      }
    },
    {
      "type": "Feature",
      "properties": {
        "norad_id": 34652,
        "name": "IRIDIUM 33 DEB",
        "group": "iridium-33-debris",
        "lat": 64.14659357010513,
        "lon": 148.0856640405714,
        "alt_km": 695.3037810886772,
        "timestamp": "2025-12-22T09:53:37.785676+00:00",
        "meta_object_name": "IRIDIUM 33 DEB",
        "meta_object_id": "1997-051KD",
        "meta_epoch": "2025-12-21T05:29:24.538272",
        "meta_mean_motion": 14.62128423,
        "meta_eccentricity": 0.0025487,
        "meta_inclination": 86.3314,
        "meta_ra_of_asc_node": 336.221,
        "meta_arg_of_pericenter": 267.1492,
        "meta_mean_anomaly": 103.1146,
        "meta_ephemeris_type": 0,
        "meta_classification_type": "U",
        "meta_norad_cat_id": 34652,
        "meta_element_set_no": 999,
        "meta_rev_at_epoch": 88608,
        "meta_bstar": 0.00068722,
        "meta_mean_motion_dot": 3.491e-05,
        "meta_mean_motion_ddot": 0,
        "tle_line1": "1 34652U 97051KD  25355.22875623  .00003491  00000+0  68722-3 0  9991",
        "tle_line2": "2 34652  86.3314 336.2210 0025487 267.1492 103.1146 14.62128423886080"
      },
      "geometry": {
        "type": "Point",
        "coordinates": [
          148.0856640405714,
          64.14659357010513
        ]
      }
    },
    {
      "type": "Feature",
      "properties": {
        "norad_id": 34690,
        "name": "IRIDIUM 33 DEB",
        "group": "iridium-33-debris",
        "lat": 83.26133520713317,
        "lon": -179.6371529161295,
        "alt_km": 702.5620279514233,
        "timestamp": "2025-12-22T09:53:37.785685+00:00",
        "meta_object_name": "IRIDIUM 33 DEB",
        "meta_object_id": "1997-051KM",
        "meta_epoch": "2025-12-21T02:14:02.861088",
        "meta_mean_motion": 14.55122739,
        "meta_eccentricity": 0.00098763,
        "meta_inclination": 86.3773,
        "meta_ra_of_asc_node": 33.3605,
        "meta_arg_of_pericenter": 1.7251,
        "meta_mean_anomaly": 27.9675,
        "meta_ephemeris_type": 0,
        "meta_classification_type": "U",
        "meta_norad_cat_id": 34690,
        "meta_element_set_no": 999,
        "meta_rev_at_epoch": 88216,
        "meta_bstar": 0.00028932758,
        "meta_mean_motion_dot": 1.27e-05,
        "meta_mean_motion_ddot": 0,
        "tle_line1": "1 34690U 97051KM  25355.09308867  .00001270  00000+0  28933-3 0  9992",
        "tle_line2": "2 34690  86.3773  33.3605 0009876   1.7251  27.9675 14.55122739882164"
      },
      "geometry": {
        "type": "Point",
        "coordinates": [
          -179.6371529161295,
          83.26133520713317
        ]
      }
    },
    {
      "type": "Feature",
      "properties": {
        "norad_id": 34693,
        "name": "IRIDIUM 33 DEB",
        "group": "iridium-33-debris",
        "lat": -15.461827888129202,
        "lon": 120.03507907744758,
        "alt_km": 487.4434783705101,
        "timestamp": "2025-12-22T09:53:37.785695+00:00",
        "meta_object_name": "IRIDIUM 33 DEB",
        "meta_object_id": "1997-051KQ",
        "meta_epoch": "2025-12-21T20:43:11.978112",
        "meta_mean_motion": 15.30009716,
        "meta_eccentricity": 0.0011094,
        "meta_inclination": 86.3051,
        "meta_ra_of_asc_node": 299.2844,
        "meta_arg_of_pericenter": 36.8807,
        "meta_mean_anomaly": 16.9571,
        "meta_ephemeris_type": 0,
        "meta_classification_type": "U",
        "meta_norad_cat_id": 34693,
        "meta_element_set_no": 999,
        "meta_rev_at_epoch": 89054,
        "meta_bstar": 0.0049986,
        "meta_mean_motion_dot": 0.00148002,
        "meta_mean_motion_ddot": 0,
        "tle_line1": "1 34693U 97051KQ  25355.86333308  .00148002  00000+0  49986-2 0  9993",
        "tle_line2": "2 34693  86.3051 299.2844 0011094  36.8807  16.9571 15.30009716890542"
      },
      "geometry": {
        "type": "Point",
        "coordinates": [
          120.03507907744758,
          -15.461827888129202
        ]
      }
    },
    {
      "type": "Feature",
      "properties": {
        "norad_id": 34696,
        "name": "IRIDIUM 33 DEB",
        "group": "iridium-33-debris",
        "lat": -50.13630109915314,
        "lon": -152.39444423538052,
        "alt_km": 686.8826673958065,
        "timestamp": "2025-12-22T09:53:37.785705+00:00",
        "meta_object_name": "IRIDIUM 33 DEB",
        "meta_object_id": "1997-051KT",
        "meta_epoch": "2025-12-21T20:32:12.261408",
        "meta_mean_motion": 14.65486354,
        "meta_eccentricity": 0.0074103,
        "meta_inclination": 86.1829,
        "meta_ra_of_asc_node": 23.2789,
        "meta_arg_of_pericenter": 136.8166,
        "meta_mean_anomaly": 38.2316,
        "meta_ephemeris_type": 0,
        "meta_classification_type": "U",
        "meta_norad_cat_id": 34696,
        "meta_element_set_no": 999,
        "meta_rev_at_epoch": 86806,
        "meta_bstar": 0.0034933,
        "meta_mean_motion_dot": 0.0001976,
        "meta_mean_motion_ddot": 0,
        "tle_line1": "1 34696U 97051KT  25355.85569747  .00019760  00000+0  34933-2 0  9997",
        "tle_line2": "2 34696  86.1829  23.2789 0074103 136.8166  38.2316 14.65486354868068"
      },
      "geometry": {
        "type": "Point",
        "coordinates": [
          -152.39444423538052,
          -50.13630109915314
        ]
      }
    }
  ]
}